HIMAWARI-8              
1 40267U 14060A   24162.95703859 -.00000275  00000+0  00000+0 0  9994
2 40267   0.0412 160.9433 0000845 288.6291 295.4147  1.00271314 35376
